NORAD_CAT_ID,EPOCH,MEAN_MOTION,ECCENTRICITY,INCLINATION,RA_OF_ASC_NODE,ARG_OF_PERICENTER,MEAN_ANOMALY,APOAPSIS,PERIAPSIS,BSTAR,COUNTRY_CODE,RCS_SIZE,NAME,LINE1,LINE2
42213,2025-08-08T13:56:32.239680,14.20949087,0.004167,82.8205,329.054,345.4743,14.5237,852.15,792.143,0.00096486,CIS,SMALL,0 COSMOS 1275 DEB,1 42213U 81053UD  25220.58092870  .00002123  00000-0  96486-3 0  9993,2 42213  82.8205 329.0540 0041670 345.4743  14.5237 14.20949087159674
42215,2025-08-05T06:22:35.324832,13.78507033,0.0104341,82.8975,211.1104,223.4212,135.8694,1045.852,892.526,0.00069253,CIS,SMALL,0 COSMOS 1275 DEB,1 42215U 81053UF  25217.26568663  .00000744  00000-0  69253-3 0  9993,2 42215  82.8975 211.1104 0104341 223.4212 135.8694 13.78507033587120
42217,2025-08-08T07:52:05.282688,13.69975314,0.0122256,83.0297,235.7553,29.8478,347.0529,1089.86,909.464,0.00087044,CIS,SMALL,0 COSMOS 1275 DEB,1 42217U 81053UH  25220.32783892  .00000820  00000-0  87044-3 0  9992,2 42217  83.0297 235.7553 0122256  29.8478 347.0529 13.69975314584299
42218,2025-07-31T02:28:13.548576,14.065858,0.0059638,82.8757,160.8645,275.648,83.7895,914.314,827.848,0.0013824,CIS,SMALL,0 COSMOS 1275 DEB,1 42218U 81053UJ  25212.10293459  .00002342  00000-0  13824-2 0  9990,2 42218  82.8757 160.8645 0059638 275.6480  83.7895 14.06585800596679
42220,2025-08-09T08:27:25.708032,14.52324876,0.002156,82.9065,198.14,172.7492,187.4023,733.367,702.768,0.0021594,CIS,SMALL,0 COSMOS 1275 DEB,1 42220U 81053UL  25221.35238088  .00008830  00000-0  21594-2 0  9998,2 42220  82.9065 198.1400 0021560 172.7492 187.4023 14.52324876610498
42221,2025-08-03T01:37:19.942752,13.79266196,0.0082405,82.8983,134.3438,46.3918,314.4038,1027.016,905.969,0.00059432,CIS,SMALL,0 COSMOS 1275 DEB,1 42221U 81053UM  25215.06759193  .00000640  00000-0  59432-3 0  9999,2 42221  82.8983 134.3438 0082405  46.3918 314.4038 13.79266196587358
42223,2025-08-09T07:04:49.590624,14.34578431,0.0037364,82.8594,220.0148,353.1058,6.9612,803.202,749.737,0.0017052,CIS,SMALL,0 COSMOS 1275 DEB,1 42223U 81053UP  25221.29501841  .00004869  00000-0  17052-2 0  9996,2 42223  82.8594 220.0148 0037364 353.1058   6.9612 14.34578431558378
42225,2025-08-03T20:47:23.527392,14.16174083,0.0037109,83.1436,72.8272,31.9016,328.44,865.102,811.543,0.00083151,CIS,SMALL,0 COSMOS 1275 DEB,1 42225U 81053UR  25215.86624453  .00001672  00000-0  83151-3 0  9992,2 42225  83.1436  72.8272 0037109  31.9016 328.4400 14.16174083601159
42226,2025-08-06T20:45:42.043680,13.68508623,0.01100982,82.9509,75.0127,333.1251,26.4223,1086.218,923.646,0.0006101441,CIS,SMALL,0 COSMOS 1275 DEB,1 42226U 81053US  25218.86506995  .00000559  00000-0  61014-3 0  9993,2 42226  82.9509  75.0127 0110098 333.1251  26.4223 13.68508623584389
42228,2025-08-07T06:16:44.193504,13.82381547,0.0040246,82.9306,59.127,173.7891,186.3777,984.969,925.939,0.00035635,CIS,SMALL,0 COSMOS 1275 DEB,1 42228U 81053UU  25219.26162261  .00000403  00000-0  35635-3 0  9992,2 42228  82.9306  59.1270 0040246 173.7891 186.3777 13.82381547 50561
42229,2025-08-06T07:43:18.297984,13.48035027,0.02210862,83.0143,231.2985,17.6032,343.2615,1244.377,914.621,0.00092992432,CIS,SMALL,0 COSMOS 1275 DEB,1 42229U 81053UV  25218.32173956  .00000680  00000-0  92992-3 0  9998,2 42229  83.0143 231.2985 0221086  17.6032 343.2615 13.48035027574551
42230,2025-08-08T17:17:57.540768,14.14611765,0.0042966,82.7485,217.0253,144.4404,215.9651,874.664,812.606,0.0010277,CIS,SMALL,0 COSMOS 1275 DEB,1 42230U 81053UW  25220.72080487  .00002008  00000-0  10277-2 0  9994,2 42230  82.7485 217.0253 0042966 144.4404 215.9651 14.14611765582791
42231,2025-08-03T12:57:38.772576,14.29336687,0.0039589,82.7585,143.8059,70.6684,289.8776,822.344,765.557,0.0016922,CIS,SMALL,0 COSMOS 1275 DEB,1 42231U 81053UX  25215.54003209  .00004361  00000-0  16922-2 0  9993,2 42231  82.7585 143.8059 0039589  70.6684 289.8776 14.29336687604077
42233,2025-08-08T23:25:15.625056,13.66828084,0.0128971,83.039,220.7588,286.0488,72.6492,1106.281,915.684,0.00082622,CIS,SMALL,0 COSMOS 1275 DEB,1 42233U 81053UZ  25220.97587529  .00000742  00000-0  82622-3 0  9990,2 42233  83.0390 220.7588 0128971 286.0488  72.6492 13.66828084763546
42239,2025-08-09T06:05:20.092992,14.4035061,0.0090836,71.126,181.4887,12.5155,347.8206,822.158,692.526,0.0049807,CIS,SMALL,0 SL-16 DEB,1 42239U 93016CT  25221.25370478  .00016588  00000-0  49807-2 0  9995,2 42239  71.1260 181.4887 0090836  12.5155 347.8206 14.40350610889460
42255,2025-08-08T19:14:44.166048,14.22433801,0.0011197,71.0052,239.7654,248.245,289.9338,825.192,809.079,0.0002389,CIS,SMALL,0 SL-16 DEB *,1 42255U 93016DK  25220.80190007  .00000484  00000-0  23890-3 0  9994,2 42255  71.0052 239.7654 0011197 248.2450 289.9338 14.22433801606603
42258,2025-08-08T22:28:09.156576,14.01583114,0.0129163,98.7084,36.2419,210.1346,149.2346,982.176,794.465,0.0027498,US,SMALL,0 DMSP 5D-2 F13 DEB,1 42258U 95015FY  25220.93621709  .00004436  00000-0  27498-2 0  9998,2 42258  98.7084  36.2419 0129163 210.1346 149.2346 14.01583114503693
42259,2025-08-08T07:28:47.377344,14.34461959,0.0011548,98.6645,249.2679,119.6252,240.6084,785.12,768.594,0.0010368,US,SMALL,0 DMSP 5D-2 F13 DEB,1 42259U 95015FZ  25220.31165946  .00002880  00000-0  10368-2 0  9996,2 42259  98.6645 249.2679 0011548 119.6252 240.6084 14.34461959516244
42261,2025-08-03T08:46:50.888064,14.38885993,0.008448,98.3534,254.5278,223.3655,136.0865,822.505,701.862,0.0002233,US,SMALL,0 DMSP 5D-2 F13 DEB,1 42261U 95015GB  25215.36586676  .00000672  00000-0  22330-3 0  9995,2 42261  98.3534 254.5278 0084480 223.3655 136.0865 14.38885993520321
42262,2025-08-08T20:58:32.882880,14.62553387,0.0027948,98.5375,273.3558,278.1584,81.6447,704.683,665.203,0.0022901,US,SMALL,0 DMSP 5D-2 F13 DEB,1 42262U 95015GC  25220.87399170  .00011653  00000-0  22901-2 0  9993,2 42262  98.5375 273.3558 0027948 278.1584  81.6447 14.62553387540545
42263,2025-08-07T01:58:47.548128,13.98526475,0.01127877,98.7619,80.7375,176.6566,183.5377,980.98,816.828,0.0007622475,US,SMALL,0 DMSP 5D-2 F13 DEB,1 42263U 95015GD  25219.08249477  .00001112  00000-0  76225-3 0  9997,2 42263  98.7619  80.7375 0112788 176.6566 183.5377 13.98526475524277
42265,2025-08-02T12:46:52.694112,14.35441041,0.0003581,98.7036,245.3062,218.9698,141.1229,776.164,771.042,0.0014101,US,SMALL,0 DMSP 5D-2 F13 DEB,1 42265U 95015GF  25214.53255433  .00004008  00000-0  14101-2 0  9994,2 42265  98.7036 245.3062 0003581 218.9698 141.1229 14.35441041502831
42266,2025-08-09T08:05:39.674400,14.4338484,0.002577,98.6036,260.8722,131.5801,228.7603,765.701,728.976,0.001654,US,SMALL,0 DMSP 5D-2 F13 DEB,1 42266U 95015GG  25221.33726475  .00005563  00000-0  16540-2 0  9996,2 42266  98.6036 260.8722 0025770 131.5801 228.7603 14.43384840528564
42267,2025-08-07T02:52:41.602080,14.16042055,0.0087583,98.7385,105.545,29.1957,331.4072,901.979,775.564,0.0022323,US,SMALL,0 DMSP 5D-2 F13 DEB,1 42267U 95015GH  25219.11992595  .00004532  00000-0  22323-2 0  9999,2 42267  98.7385 105.5450 0087583  29.1957 331.4072 14.16042055526367
42268,2025-08-05T12:17:41.091360,14.04571968,0.0118481,98.7475,62.2656,159.7493,200.8433,963.98,792.037,0.0020566,US,SMALL,0 DMSP 5D-2 F13 DEB,1 42268U 95015GJ  25217.51228115  .00003457  00000-0  20566-2 0  9994,2 42268  98.7475  62.2656 0118481 159.7493 200.8433 14.04571968522927
42270,2025-07-20T02:55:44.894496,15.39704618,0.0015384,98.7857,260.0175,240.1453,119.826,457.484,436.484,0.014216,US,SMALL,0 DMSP 5D-2 F13 DEB,1 42270U 95015GL  25201.12204739  .00609169  00000-0  14216-1 0  9999,2 42270  98.7857 260.0175 0015384 240.1453 119.8260 15.39704618525454
42271,2025-08-07T02:55:36.371136,14.65143989,0.00042425,98.691,274.3241,167.2481,192.8828,679.608,673.622,0.0031493329,US,SMALL,0 DMSP 5D-2 F13 DEB,1 42271U 95015GM  25219.12194874  .00016918  00000-0  31493-2 0  9998,2 42271  98.6910 274.3241 0004243 167.2481 192.8828 14.65143989525905
42272,2025-08-04T11:44:05.582400,14.31059179,0.0024486,98.8894,234.4654,51.494,308.8432,805.742,770.647,0.0014873,US,SMALL,0 DMSP 5D-2 F13 DEB,1 42272U 95015GN  25216.48895350  .00003886  00000-0  14873-2 0  9995,2 42272  98.8894 234.4654 0024486  51.4940 308.8432 14.31059179522344
42276,2025-07-26T11:47:01.748544,13.93050263,0.0113493,99.07,128.333,275.3275,83.4945,1000.768,835.157,0.00023634,US,SMALL,0 DMSP 5D-2 F13 DEB,1 42276U 95015GS  25207.49099246  .00000279  00000-0  23634-3 0  9999,2 42276  99.0700 128.3330 0113493 275.3275  83.4945 13.93050263522273
42278,2025-08-09T06:41:07.780992,14.46147207,0.0031085,98.887,232.0544,110.2394,250.2143,760.383,716.141,0.0036701,US,SMALL,0 DMSP 5D-2 F13 DEB,1 42278U 95015GU  25221.27856228  .00013168  00000-0  36701-2 0  9993,2 42278  98.8870 232.0544 0031085 110.2394 250.2143 14.46147207522420
42279,2025-08-08T22:33:02.593440,14.74311997,0.0006,98.7437,277.3238,257.5865,102.467,651.553,643.123,0.0057374,US,SMALL,0 DMSP 5D-2 F13 DEB,1 42279U 95015GV  25220.93961335  .00038144  00000-0  57374-2 0  9992,2 42279  98.7437 277.3238 0006000 257.5865 102.4670 14.74311997536370
42280,2025-08-09T00:53:12.088608,15.8787101,0.0029055,98.7056,316.368,288.6582,71.1532,327.682,288.828,0.03225,US,SMALL,0 DMSP 5D-2 F13 DEB,1 42280U 95015GW  25221.03694547  .07154181  66846-1  32250-1 0  9997,2 42280  98.7056 316.3680 0029055 288.6582  71.1532 15.87871010538137
42281,2025-08-09T02:35:42.222048,14.55311707,0.0028217,98.5643,274.4129,281.1226,78.6798,728.351,688.359,0.0020638,US,SMALL,0 DMSP 5D-2 F13 DEB,1 42281U 95015GX  25221.10812757  .00008956  00000-0  20638-2 0  9999,2 42281  98.5643 274.4129 0028217 281.1226  78.6798 14.55311707538280
42282,2025-08-07T23:29:54.056832,14.27502263,0.0033845,98.9474,228.2634,135.4545,224.9364,824.389,775.799,0.0013655,US,SMALL,0 DMSP 5D-2 F13 DEB,1 42282U 95015GY  25219.97909788  .00003330  00000-0  13655-2 0  9995,2 42282  98.9474 228.2634 0033845 135.4545 224.9364 14.27502263530615
